start=new Date('2022-11-29T00:00:00.000Z').valueOf();
sats=[{"MEAN_MOTION":"15.08841373","ELEMENT_SET_NO":"999","DECAY_DATE":null,"OBJECT_NAME":"STARLINK-3519","COUNTRY_CODE":"US","EPOCH":"2022-11-28T17:32:22.752960","SITE":"AFETR","RA_OF_ASC_NODE":"332.4907","APOAPSIS":"541.523","ECCENTRICITY":"0.00025750","TIME_SYSTEM":"UTC","PERIOD":"95.437","RCS_SIZE":"LARGE","GP_ID":"219009158","MEAN_MOTION_DDOT":"0.0000000000000","CENTER_NAME":"EARTH","ARG_OF_PERICENTER":"33.2836","FILE":"3672638","CLASSIFICATION_TYPE":"U","MEAN_MOTION_DOT":"-0.00000507","MEAN_ANOMALY":"326.8318","MEAN_ELEMENT_THEORY":"SGP4","REV_AT_EPOCH":"4254","PERIAPSIS":"537.960","INCLINATION":"53.2190","NORAD_CAT_ID":"51890","TLE_LINE1":"1 51890U 22022AQ  22332.73081890 -.00000507  00000-0 -13708-4 0  9996","SEMIMAJOR_AXIS":"6917.876","BSTAR":"-0.00001370800000","OBJECT_ID":"2022-022AQ","OBJECT_TYPE":"PAYLOAD","LAUNCH_DATE":"2022-03-03","EPHEMERIS_TYPE":"0","REF_FRAME":"TEME","TLE_LINE2":"2 51890  53.2190 332.4907 0002575  33.2836 326.8318 15.08841373 42543"},{"MEAN_MOTION_DOT":"0.00000123","MEAN_ELEMENT_THEORY":"SGP4","MEAN_ANOMALY":"323.4985","ARG_OF_PERICENTER":"36.6179","FILE":"3672392","CLASSIFICATION_TYPE":"U","SEMIMAJOR_AXIS":"6917.887","BSTAR":"0.00002584500000","OBJECT_ID":"2022-022AR","PERIAPSIS":"538.002","INCLINATION":"53.2168","REV_AT_EPOCH":"4254","NORAD_CAT_ID":"51891","TLE_LINE1":"1 51891U 22022AR  22332.38857856  .00000123  00000-0  25845-4 0  9998","REF_FRAME":"TEME","TLE_LINE2":"2 51891  53.2168 334.0271 0002529  36.6179 323.4985 15.08837868 42544","OBJECT_TYPE":"PAYLOAD","LAUNCH_DATE":"2022-03-03","EPHEMERIS_TYPE":"0","DECAY_DATE":null,"MEAN_MOTION":"15.08837868","ELEMENT_SET_NO":"999","COUNTRY_CODE":"US","OBJECT_NAME":"STARLINK-3549","PERIOD":"95.438","TIME_SYSTEM":"UTC","RCS_SIZE":"LARGE","EPOCH":"2022-11-28T09:19:33.187584","SITE":"AFETR","APOAPSIS":"541.501","RA_OF_ASC_NODE":"334.0271","ECCENTRICITY":"0.00025290","MEAN_MOTION_DDOT":"0.0000000000000","GP_ID":"219004677","CENTER_NAME":"EARTH"},{"CENTER_NAME":"EARTH","GP_ID":"219009226","MEAN_MOTION_DDOT":"0.0000000000000","RCS_SIZE":"LARGE","TIME_SYSTEM":"UTC","PERIOD":"95.437","APOAPSIS":"541.488","RA_OF_ASC_NODE":"332.5121","ECCENTRICITY":"0.00025340","EPOCH":"2022-11-28T17:27:04.508064","SITE":"AFETR","COUNTRY_CODE":"US","OBJECT_NAME":"STARLINK-3587","DECAY_DATE":null,"MEAN_MOTION":"15.08843242","ELEMENT_SET_NO":"999","REF_FRAME":"TEME","TLE_LINE2":"2 51892  53.2176 332.5121 0002534  31.3091 328.8052 15.08843242 42549","LAUNCH_DATE":"2022-03-03","EPHEMERIS_TYPE":"0","OBJECT_TYPE":"PAYLOAD","BSTAR":"0.00005205800000","OBJECT_ID":"2022-022AS","SEMIMAJOR_AXIS":"6917.870","NORAD_CAT_ID":"51892","TLE_LINE1":"1 51892U 22022AS  22332.72713551  .00000540  00000-0  52058-4 0  9999","INCLINATION":"53.2176","PERIAPSIS":"537.982","REV_AT_EPOCH":"4254","MEAN_MOTION_DOT":"0.00000540","MEAN_ANOMALY":"328.8052","MEAN_ELEMENT_THEORY":"SGP4","CLASSIFICATION_TYPE":"U","ARG_OF_PERICENTER":"31.3091","FILE":"3672638"},{"OBJECT_NAME":"STARLINK-3579","COUNTRY_CODE":"US","MEAN_MOTION":"15.08840588","ELEMENT_SET_NO":"999","DECAY_DATE":null,"MEAN_MOTION_DDOT":"0.0000000000000","GP_ID":"219009166","CENTER_NAME":"EARTH","EPOCH":"2022-11-28T17:05:53.190816","SITE":"AFETR","RA_OF_ASC_NODE":"332.5698","APOAPSIS":"541.447","ECCENTRICITY":"0.00024630","TIME_SYSTEM":"UTC","PERIOD":"95.438","RCS_SIZE":"LARGE","ARG_OF_PERICENTER":"37.4544","FILE":"3672638","CLASSIFICATION_TYPE":"U","MEAN_MOTION_DOT":"-0.00000309","MEAN_ELEMENT_THEORY":"SGP4","MEAN_ANOMALY":"322.6620","OBJECT_TYPE":"PAYLOAD","LAUNCH_DATE":"2022-03-03","EPHEMERIS_TYPE":"0","REF_FRAME":"TEME","TLE_LINE2":"2 51893  53.2189 332.5698 0002463  37.4544 322.6620 15.08840588 42604","PERIAPSIS":"538.040","INCLINATION":"53.2189","REV_AT_EPOCH":"4260","NORAD_CAT_ID":"51893","TLE_LINE1":"1 51893U 22022AT  22332.71242119 -.00000309  00000-0 -12882-5 0  9993","SEMIMAJOR_AXIS":"6917.879","BSTAR":"-0.00000128820000","OBJECT_ID":"2022-022AT"},{"OBJECT_NAME":"STARLINK-3595","COUNTRY_CODE":"US","ELEMENT_SET_NO":"999","MEAN_MOTION":"15.08835593","DECAY_DATE":null,"CENTER_NAME":"EARTH","GP_ID":"219004231","MEAN_MOTION_DDOT":"0.0000000000000","ECCENTRICITY":"0.00028370","RA_OF_ASC_NODE":"334.0448","APOAPSIS":"541.721","SITE":"AFETR","EPOCH":"2022-11-28T09:14:15.935424","RCS_SIZE":"LARGE","TIME_SYSTEM":"UTC","PERIOD":"95.438","CLASSIFICATION_TYPE":"U","FILE":"3672392","ARG_OF_PERICENTER":"33.7559","MEAN_ELEMENT_THEORY":"SGP4","MEAN_ANOMALY":"326.3613","MEAN_MOTION_DOT":"-0.00001951","EPHEMERIS_TYPE":"0","LAUNCH_DATE":"2022-03-03","OBJECT_TYPE":"PAYLOAD","TLE_LINE2":"2 51894  53.2173 334.0448 0002837  33.7559 326.3613 15.08835593 42555","REF_FRAME":"TEME","TLE_LINE1":"1 51894U 22022AU  22332.38490666 -.00001951  00000-0 -10448-3 0  9997","NORAD_CAT_ID":"51894","INCLINATION":"53.2173","PERIAPSIS":"537.796","REV_AT_EPOCH":"4255","OBJECT_ID":"2022-022AU","BSTAR":"-0.00010448000000","SEMIMAJOR_AXIS":"6917.894"},{"CLASSIFICATION_TYPE":"U","FILE":"3672641","ARG_OF_PERICENTER":"32.9403","MEAN_ELEMENT_THEORY":"SGP4","MEAN_ANOMALY":"327.1753","MEAN_MOTION_DOT":"-0.00001217","EPHEMERIS_TYPE":"0","LAUNCH_DATE":"2022-03-03","OBJECT_TYPE":"PAYLOAD","REF_FRAME":"TEME","TLE_LINE2":"2 51895  53.2189 332.5843 0002640  32.9403 327.1753 15.08828747 42542","TLE_LINE1":"1 51895U 22022AV  22332.70874683 -.00001217  00000-0 -58343-4 0  9991","NORAD_CAT_ID":"51895","PERIAPSIS":"537.953","INCLINATION":"53.2189","REV_AT_EPOCH":"4254","OBJECT_ID":"2022-022AV","BSTAR":"-0.00005834300000","SEMIMAJOR_AXIS":"6917.915","OBJECT_NAME":"STARLINK-3594","COUNTRY_CODE":"US","ELEMENT_SET_NO":"999","MEAN_MOTION":"15.08828747","DECAY_DATE":null,"CENTER_NAME":"EARTH","GP_ID":"219009541","MEAN_MOTION_DDOT":"0.0000000000000","ECCENTRICITY":"0.00026400","RA_OF_ASC_NODE":"332.5843","APOAPSIS":"541.606","SITE":"AFETR","EPOCH":"2022-11-28T17:00:35.726112","RCS_SIZE":"LARGE","PERIOD":"95.438","TIME_SYSTEM":"UTC"},{"COUNTRY_CODE":"US","OBJECT_NAME":"STARLINK-3593","DECAY_DATE":null,"MEAN_MOTION":"15.08836199","ELEMENT_SET_NO":"999","MEAN_MOTION_DDOT":"0.0000000000000","GP_ID":"218992186","CENTER_NAME":"EARTH","TIME_SYSTEM":"UTC","PERIOD":"95.438","RCS_SIZE":"LARGE","EPOCH":"2022-11-27T17:11:10.752288","SITE":"AFETR","RA_OF_ASC_NODE":"337.0352","APOAPSIS":"541.653","ECCENTRICITY":"0.00027400","MEAN_MOTION_DOT":"0.00000161","MEAN_ELEMENT_THEORY":"SGP4","MEAN_ANOMALY":"328.1250","ARG_OF_PERICENTER":"31.9908","FILE":"3671921","CLASSIFICATION_TYPE":"U","REF_FRAME":"TEME","TLE_LINE2":"2 51896  53.2197 337.0352 0002740  31.9908 328.1250 15.08836199 42449","OBJECT_TYPE":"PAYLOAD","LAUNCH_DATE":"2022-03-03","EPHEMERIS_TYPE":"0","SEMIMAJOR_AXIS":"6917.892","BSTAR":"0.00002825300000","OBJECT_ID":"2022-022AW","PERIAPSIS":"537.862","REV_AT_EPOCH":"4244","INCLINATION":"53.2197","NORAD_CAT_ID":"51896","TLE_LINE1":"1 51896U 22022AW  22331.71609667  .00000161  00000-0  28253-4 0  9992"},{"MEAN_MOTION":"15.08835750","ELEMENT_SET_NO":"999","DECAY_DATE":null,"OBJECT_NAME":"STARLINK-3598","COUNTRY_CODE":"US","APOAPSIS":"541.448","RA_OF_ASC_NODE":"335.2824","ECCENTRICITY":"0.00024420","EPOCH":"2022-11-28T02:36:48.684384","SITE":"AFETR","RCS_SIZE":"LARGE","PERIOD":"95.438","TIME_SYSTEM":"UTC","CENTER_NAME":"EARTH","GP_ID":"218999676","MEAN_MOTION_DDOT":"0.0000000000000","CLASSIFICATION_TYPE":"U","ARG_OF_PERICENTER":"28.4293","FILE":"3672153","MEAN_MOTION_DOT":"-0.00000079","MEAN_ELEMENT_THEORY":"SGP4","MEAN_ANOMALY":"331.6832","NORAD_CAT_ID":"51897","TLE_LINE1":"1 51897U 22022AX  22332.10889681 -.00000079  00000-0  13187-4 0  9992","PERIAPSIS":"538.069","REV_AT_EPOCH":"4245","INCLINATION":"53.2163","BSTAR":"0.00001318700000","OBJECT_ID":"2022-022AX","SEMIMAJOR_AXIS":"6917.893","LAUNCH_DATE":"2022-03-03","EPHEMERIS_TYPE":"0","OBJECT_TYPE":"PAYLOAD","REF_FRAME":"TEME","TLE_LINE2":"2 51897  53.2163 335.2824 0002442  28.4293 331.6832 15.08835750 42452"},{"COUNTRY_CODE":"US","OBJECT_NAME":"STARLINK-3597","DECAY_DATE":null,"ELEMENT_SET_NO":"999","MEAN_MOTION":"15.08843514","CENTER_NAME":"EARTH","MEAN_MOTION_DDOT":"0.0000000000000","GP_ID":"219004696","RCS_SIZE":"LARGE","TIME_SYSTEM":"UTC","PERIOD":"95.437","ECCENTRICITY":"0.00023010","APOAPSIS":"541.326","RA_OF_ASC_NODE":"333.5127","SITE":"AFETR","EPOCH":"2022-11-28T12:03:49.721184","MEAN_ELEMENT_THEORY":"SGP4","MEAN_ANOMALY":"320.6446","MEAN_MOTION_DOT":"-0.00001719","CLASSIFICATION_TYPE":"U","FILE":"3672400","ARG_OF_PERICENTER":"39.4714","TLE_LINE2":"2 51898  53.2169 333.5127 0002301  39.4714 320.6446 15.08843514 42568","REF_FRAME":"TEME","EPHEMERIS_TYPE":"0","LAUNCH_DATE":"2022-03-03","OBJECT_TYPE":"PAYLOAD","OBJECT_ID":"2022-022AY","BSTAR":"-0.00008987400000","SEMIMAJOR_AXIS":"6917.870","TLE_LINE1":"1 51898U 22022AY  22332.50265881 -.00001719  00000-0 -89874-4 0  9996","NORAD_CAT_ID":"51898","REV_AT_EPOCH":"4256","PERIAPSIS":"538.143","INCLINATION":"53.2169"},{"DECAY_DATE":null,"MEAN_MOTION":"15.08841068","ELEMENT_SET_NO":"999","COUNTRY_CODE":"US","OBJECT_NAME":"STARLINK-3700","RCS_SIZE":"LARGE","PERIOD":"95.437","TIME_SYSTEM":"UTC","APOAPSIS":"541.445","RA_OF_ASC_NODE":"6.6754","ECCENTRICITY":"0.00024610","EPOCH":"2022-11-27T19:07:42.246336","SITE":"AFETR","CENTER_NAME":"EARTH","MEAN_MOTION_DDOT":"0.0000000000000","GP_ID":"218991438","MEAN_MOTION_DOT":"-0.00000146","MEAN_ELEMENT_THEORY":"SGP4","MEAN_ANOMALY":"335.1459","CLASSIFICATION_TYPE":"U","ARG_OF_PERICENTER":"24.9652","FILE":"3671921","BSTAR":"0.00000891810000","OBJECT_ID":"2022-025A","SEMIMAJOR_AXIS":"6917.877","NORAD_CAT_ID":"51956","TLE_LINE1":"1 51956U 22025A   22331.79701674 -.00000146  00000-0  89181-5 0  9993","PERIAPSIS":"538.040","INCLINATION":"53.2184","REV_AT_EPOCH":"4035","REF_FRAME":"TEME","TLE_LINE2":"2 51956  53.2184   6.6754 0002461  24.9652 335.1459 15.08841068 40353","LAUNCH_DATE":"2022-03-09","EPHEMERIS_TYPE":"0","OBJECT_TYPE":"PAYLOAD"}];
